{"type": "FeatureCollection", "features": [{"type": "Feature", "geometry": {"type": "Polygon", "coordinates": [[[68.02697723699389, 40.294623798572154], [68.03154185228821, 40.29452825166038], [68.0316210069747, 40.29945585541755], [68.02710739409659, 40.299237288622884], [68.02697723699389, 40.294623798572154]]]}, "properties": {"name": "Kontur-1", "area_ha": 24.0, "soil": "sho'rlangan tuproq", "farm": "Islomov fermer xo'jaligi №2", "region": "Jizzax"}}, {"type": "Feature", "geometry": {"type": "Polygon", "coordinates": [[[66.73815140789866, 39.53147338249825], [66.74619000708164, 39.53055865987125], [66.74493824008633, 39.536899474739236], [66.73884170289412, 39.53763623721575], [66.73815140789866, 39.53147338249825]]]}, "properties": {"name": "Kontur-2", "area_ha": 63.0, "soil": "sho'rlangan tuproq", "farm": "Vohidov fermer xo'jaligi №10", "region": "Samarqand"}}, {"type": "Feature", "geometry": {"type": "Polygon", "coordinates": [[[64.18919082362426, 39.47982871034069], [64.19966897506029, 39.480202021264155], [64.19927293969259, 39.489590070986964], [64.18980241738441, 39.48977249099549], [64.18919082362426, 39.47982871034069]]]}, "properties": {"name": "Kontur-3", "area_ha": 111.4, "soil": "gilli tuproq", "farm": "Abdullayev fermer xo'jaligi №4", "region": "Buxoro"}}, {"type": "Feature", "geometry": {"type": "Polygon", "coordinates": [[[71.99440661605138, 41.23953757763484], [72.00215688058933, 41.24001844564826], [72.00455058638573, 41.24789983836503], [71.99479674220146, 41.24872795563923], [71.99440661605138, 41.23953757763484]]]}, "properties": {"name": "Kontur-4", "area_ha": 103.6, "soil": "qumloq tuproq", "farm": "Umarov fermer xo'jaligi №71", "region": "Namangan"}}, {"type": "Feature", "geometry": {"type": "Polygon", "coordinates": [[[66.059928466144, 39.17289308647958], [66.0664825722994, 39.1722845368893], [66.0667491594272, 39.1785587259026], [66.06004391184405, 39.17821259335443], [66.059928466144, 39.17289308647958]]]}, "properties": {"name": "Kontur-5", "area_ha": 48.6, "soil": "qumloq tuproq", "farm": "Olimov fermer xo'jaligi №50", "region": "Qashqadaryo"}}, {"type": "Feature", "geometry": {"type": "Polygon", "coordinates": [[[68.97086313626134, 41.02937727099685], [68.9790330649972, 41.02993783233664], [68.97941970361518, 41.037864256357835], [68.96946138135094, 41.037389305875315], [68.97086313626134, 41.02937727099685]]]}, "properties": {"name": "Kontur-6", "area_ha": 77.8, "soil": "bo'z tuproq", "farm": "Karimov fermer xo'jaligi №75", "region": "Sirdaryo"}}, {"type": "Feature", "geometry": {"type": "Polygon", "coordinates": [[[64.70309861610463, 40.077402338636475], [64.71329296701626, 40.07725531810554], [64.7127827637982, 40.088027231364464], [64.70444257179133, 40.088242317334306], [64.70309861610463, 40.077402338636475]]]}, "properties": {"name": "Kontur-7", "area_ha": 115.3, "soil": "sho'rlangan tuproq", "farm": "Olimov fermer xo'jaligi №16", "region": "Buxoro"}}, {"type": "Feature", "geometry": {"type": "Polygon", "coordinates": [[[72.0980797612579, 40.64008067971308], [72.10382876281099, 40.64145212081372], [72.10331695948568, 40.64879899457263], [72.09743497461494, 40.648473791072504], [72.0980797612579, 40.64008067971308]]]}, "properties": {"name": "Kontur-8", "area_ha": 58.6, "soil": "gilli tuproq", "farm": "Karimov fermer xo'jaligi №62", "region": "Farg'ona"}}, {"type": "Feature", "geometry": {"type": "Polygon", "coordinates": [[[59.29742796198465, 42.2613655198161], [59.305435380266644, 42.26109204906233], [59.305900568807246, 42.27016532804659], [59.2979288831805, 42.269221676054435], [59.29742796198465, 42.2613655198161]]]}, "properties": {"name": "Kontur-9", "area_ha": 94.0, "soil": "qumloq tuproq", "farm": "Yusupov fermer xo'jaligi №63", "region": "Qoraqalpog'iston"}}, {"type": "Feature", "geometry": {"type": "Polygon", "coordinates": [[[72.03602287052806, 41.30567227122248], [72.04223901297398, 41.30590146661444], [72.04263885669985, 41.31197748326035], [72.03618927043567, 41.312680255387306], [72.03602287052806, 41.30567227122248]]]}, "properties": {"name": "Kontur-10", "area_ha": 49.1, "soil": "gilli tuproq", "farm": "Umarov fermer xo'jaligi №71", "region": "Namangan"}}, {"type": "Feature", "geometry": {"type": "Polygon", "coordinates": [[[72.04145229827351, 40.442453475499974], [72.048394705999, 40.44092369968467], [72.04839529230043, 40.44916082186338], [72.04165045264219, 40.44994824261519], [72.04145229827351, 40.442453475499974]]]}, "properties": {"name": "Kontur-11", "area_ha": 78.3, "soil": "bo'z tuproq", "farm": "Yusupov fermer xo'jaligi №74", "region": "Andijon"}}, {"type": "Feature", "geometry": {"type": "Polygon", "coordinates": [[[72.14095888148466, 41.15576323094686], [72.15049315130595, 41.15555216983908], [72.15053138776098, 41.16437483295501], [72.14161730696544, 41.163761069292775], [72.14095888148466, 41.15576323094686]]]}, "properties": {"name": "Kontur-12", "area_ha": 94.8, "soil": "bo'z tuproq", "farm": "Bekmurodov fermer xo'jaligi №54", "region": "Namangan"}}, {"type": "Feature", "geometry": {"type": "Polygon", "coordinates": [[[60.26682982349163, 41.407831028899956], [60.27079379476516, 41.408173060851325], [60.27020815313173, 41.41167261955498], [60.26620426479655, 41.41134876528201], [60.26682982349163, 41.407831028899956]]]}, "properties": {"name": "Kontur-13", "area_ha": 21.4, "soil": "bo'z tuproq", "farm": "Bekmurodov fermer xo'jaligi №69", "region": "Xorazm"}}, {"type": "Feature", "geometry": {"type": "Polygon", "coordinates": [[[69.62938946068182, 41.64623976477039], [69.63218844811811, 41.64624571903954], [69.63222552231848, 41.648807308533065], [69.62900240246745, 41.64865945315259], [69.62938946068182, 41.64623976477039]]]}, "properties": {"name": "Kontur-14", "area_ha": 11.6, "soil": "bo'z tuproq", "farm": "Rahimov fermer xo'jaligi №72", "region": "Toshkent"}}, {"type": "Feature", "geometry": {"type": "Polygon", "coordinates": [[[72.08489143916574, 40.58193341935108], [72.08970553394096, 40.58196224048083], [72.09002569649265, 40.5858444088411], [72.08570481292588, 40.58627597271342], [72.08489143916574, 40.58193341935108]]]}, "properties": {"name": "Kontur-15", "area_ha": 27.2, "soil": "sho'rlangan tuproq", "farm": "Karimov fermer xo'jaligi №61", "region": "Farg'ona"}}, {"type": "Feature", "geometry": {"type": "Polygon", "coordinates": [[[67.19974619701044, 40.0314584326102], [67.20453419827646, 40.03180051880394], [67.20429118319247, 40.03543374231352], [67.2001794833823, 40.03582871739332], [67.19974619701044, 40.0314584326102]]]}, "properties": {"name": "Kontur-16", "area_ha": 26.1, "soil": "sho'rlangan tuproq", "farm": "Jo'rayev fermer xo'jaligi №77", "region": "Samarqand"}}, {"type": "Feature", "geometry": {"type": "Polygon", "coordinates": [[[72.03596582166928, 40.55148912688565], [72.04419008525524, 40.550112546723454], [72.04491318074443, 40.55896576869192], [72.03480386485943, 40.55955452278394], [72.03596582166928, 40.55148912688565]]]}, "properties": {"name": "Kontur-17", "area_ha": 113.2, "soil": "qumloq tuproq", "farm": "Karimov fermer xo'jaligi №62", "region": "Farg'ona"}}, {"type": "Feature", "geometry": {"type": "Polygon", "coordinates": [[[71.96577522310238, 40.61378631841797], [71.97269284434962, 40.61495700131207], [71.97337651123325, 40.620055246392496], [71.96649109362669, 40.620326435647534], [71.96577522310238, 40.61378631841797]]]}, "properties": {"name": "Kontur-18", "area_ha": 52.4, "soil": "gilli tuproq", "farm": "Sharipov fermer xo'jaligi №32", "region": "Farg'ona"}}, {"type": "Feature", "geometry": {"type": "Polygon", "coordinates": [[[72.52741037400938, 40.964332575316526], [72.5347985610137, 40.96658325596256], [72.53492900611347, 40.973907077203116], [72.52682517763368, 40.973394038843054], [72.52741037400938, 40.964332575316526]]]}, "properties": {"name": "Kontur-19", "area_ha": 79.5, "soil": "o'tloq tuproq", "farm": "Qodirov fermer xo'jaligi №46", "region": "Andijon"}}, {"type": "Feature", "geometry": {"type": "Polygon", "coordinates": [[[72.10529191250396, 40.64081335516085], [72.11346662735882, 40.64065325990482], [72.11273239042958, 40.64783792367114], [72.1055825289884, 40.648095733180455], [72.10529191250396, 40.64081335516085]]]}, "properties": {"name": "Kontur-20", "area_ha": 62.9, "soil": "o'tloq tuproq", "farm": "Karimov fermer xo'jaligi №62", "region": "Farg'ona"}}, {"type": "Feature", "geometry": {"type": "Polygon", "coordinates": [[[59.416682785168376, 42.10427581544328], [59.42390283438589, 42.10273702054732], [59.42246200109033, 42.111909597545456], [59.41736086243778, 42.11253750473597], [59.416682785168376, 42.10427581544328]]]}, "properties": {"name": "Kontur-21", "area_ha": 90.4, "soil": "qumloq tuproq", "farm": "Umarov fermer xo'jaligi №25", "region": "Qoraqalpog'iston"}}, {"type": "Feature", "geometry": {"type": "Polygon", "coordinates": [[[65.75362376188744, 40.419290828100884], [65.75967057097652, 40.41947654652275], [65.75961776301548, 40.42477989441263], [65.7539679696188, 40.42577901485712], [65.75362376188744, 40.419290828100884]]]}, "properties": {"name": "Kontur-22", "area_ha": 40.8, "soil": "qumloq tuproq", "farm": "Xolmatov fermer xo'jaligi №67", "region": "Navoiy"}}, {"type": "Feature", "geometry": {"type": "Polygon", "coordinates": [[[69.03272065253161, 41.16169614282776], [69.04021989511264, 41.1620177617296], [69.03954932986284, 41.17029133049829], [69.03173140789566, 41.168887331682], [69.03272065253161, 41.16169614282776]]]}, "properties": {"name": "Kontur-23", "area_ha": 68.9, "soil": "qumloq tuproq", "farm": "Olimov fermer xo'jaligi №31", "region": "Sirdaryo"}}, {"type": "Feature", "geometry": {"type": "Polygon", "coordinates": [[[64.61675326691707, 39.89757806407499], [64.6248530648516, 39.89621299290075], [64.62535254657061, 39.90559420026537], [64.61730824765804, 39.906050783585066], [64.61675326691707, 39.89757806407499]]]}, "properties": {"name": "Kontur-24", "area_ha": 109.3, "soil": "bo'z tuproq", "farm": "Sharipov fermer xo'jaligi №12", "region": "Buxoro"}}, {"type": "Feature", "geometry": {"type": "Polygon", "coordinates": [[[71.91666300577621, 41.31272614603936], [71.9246209966986, 41.312661234208484], [71.92456679576244, 41.32172034011221], [71.91617742093625, 41.320287851210196], [71.91666300577621, 41.31272614603936]]]}, "properties": {"name": "Kontur-25", "area_ha": 82.1, "soil": "qumloq tuproq", "farm": "Xolmatov fermer xo'jaligi №23", "region": "Namangan"}}, {"type": "Feature", "geometry": {"type": "Polygon", "coordinates": [[[68.3501445327139, 40.62849933004458], [68.35806241929647, 40.629202292383695], [68.3581324357438, 40.63623339775233], [68.35095719208839, 40.63709835423059], [68.3501445327139, 40.62849933004458]]]}, "properties": {"name": "Kontur-26", "area_ha": 72.5, "soil": "sho'rlangan tuproq", "farm": "Rahimov fermer xo'jaligi №29", "region": "Sirdaryo"}}, {"type": "Feature", "geometry": {"type": "Polygon", "coordinates": [[[67.31247881981645, 37.82211177159174], [67.31533289957204, 37.82195397718411], [67.31531920309372, 37.824378281816024], [67.3130070648586, 37.82489105677099], [67.31247881981645, 37.82211177159174]]]}, "properties": {"name": "Kontur-27", "area_ha": 7.9, "soil": "sho'rlangan tuproq", "farm": "Xolmatov fermer xo'jaligi №39", "region": "Surxondaryo"}}, {"type": "Feature", "geometry": {"type": "Polygon", "coordinates": [[[66.70594960880415, 39.53569450543733], [66.71526506457059, 39.53768823815733], [66.71403676763678, 39.54450753436276], [66.70629336576073, 39.546097997049245], [66.70594960880415, 39.53569450543733]]]}, "properties": {"name": "Kontur-28", "area_ha": 92.6, "soil": "o'tloq tuproq", "farm": "Rahimov fermer xo'jaligi №24", "region": "Samarqand"}}, {"type": "Feature", "geometry": {"type": "Polygon", "coordinates": [[[67.26295322444965, 39.86150776806875], [67.2721089774756, 39.86240905862899], [67.27266706300453, 39.87310104478656], [67.26344166140458, 39.87120213863295], [67.26295322444965, 39.86150776806875]]]}, "properties": {"name": "Kontur-29", "area_ha": 118.2, "soil": "gilli tuproq", "farm": "Jo'rayev fermer xo'jaligi №76", "region": "Samarqand"}}, {"type": "Feature", "geometry": {"type": "Polygon", "coordinates": [[[59.81017047087999, 42.81143920523715], [59.8173623457784, 42.81139379140743], [59.81616709524276, 42.81794637985202], [59.80997633656334, 42.81779858792361], [59.81017047087999, 42.81143920523715]]]}, "properties": {"name": "Kontur-30", "area_ha": 52.3, "soil": "o'tloq tuproq", "farm": "Islomov fermer xo'jaligi №59", "region": "Qoraqalpog'iston"}}, {"type": "Feature", "geometry": {"type": "Polygon", "coordinates": [[[64.76991519353099, 40.072404664037606], [64.77747385626799, 40.07316618453516], [64.77758298096579, 40.080667381187105], [64.76963508113124, 40.080257025770884], [64.76991519353099, 40.072404664037606]]]}, "properties": {"name": "Kontur-31", "area_ha": 87.0, "soil": "qumloq tuproq", "farm": "Qodirov fermer xo'jaligi №44", "region": "Buxoro"}}, {"type": "Feature", "geometry": {"type": "Polygon", "coordinates": [[[64.20571809994043, 39.555676155970815], [64.20884527471709, 39.55664691100881], [64.20845083705609, 39.55837771408215], [64.20586093242783, 39.558700629831584], [64.20571809994043, 39.555676155970815]]]}, "properties": {"name": "Kontur-32", "area_ha": 8.4, "soil": "qumloq tuproq", "farm": "Vohidov fermer xo'jaligi №58", "region": "Buxoro"}}, {"type": "Feature", "geometry": {"type": "Polygon", "coordinates": [[[72.46954753835338, 40.85330408497613], [72.48133387960078, 40.85293595511496], [72.47966511374214, 40.86202641017221], [72.4710205582789, 40.86091716150296], [72.46954753835338, 40.85330408497613]]]}, "properties": {"name": "Kontur-33", "area_ha": 107.0, "soil": "qumloq tuproq", "farm": "Xolmatov fermer xo'jaligi №53", "region": "Andijon"}}, {"type": "Feature", "geometry": {"type": "Polygon", "coordinates": [[[65.70402940914238, 40.47312191136404], [65.70988343463401, 40.47380185130732], [65.70918764909503, 40.48010432721056], [65.7038118457197, 40.47986487263342], [65.70402940914238, 40.47312191136404]]]}, "properties": {"name": "Kontur-34", "area_ha": 50.1, "soil": "o'tloq tuproq", "farm": "Bekmurodov fermer xo'jaligi №27", "region": "Navoiy"}}, {"type": "Feature", "geometry": {"type": "Polygon", "coordinates": [[[64.69086797810779, 40.065159770895825], [64.69942008852063, 40.06674543054725], [64.70021225161504, 40.074201105957144], [64.69149596823065, 40.07625744739966], [64.69086797810779, 40.065159770895825]]]}, "properties": {"name": "Kontur-35", "area_ha": 115.3, "soil": "gilli tuproq", "farm": "Sharipov fermer xo'jaligi №11", "region": "Buxoro"}}, {"type": "Feature", "geometry": {"type": "Polygon", "coordinates": [[[71.98194509309174, 41.1885842370115], [71.98674911486967, 41.18833547950733], [71.98693091022913, 41.19432029812415], [71.98146594765056, 41.193834572363336], [71.98194509309174, 41.1885842370115]]]}, "properties": {"name": "Kontur-36", "area_ha": 39.4, "soil": "bo'z tuproq", "farm": "Xolmatov fermer xo'jaligi №23", "region": "Namangan"}}, {"type": "Feature", "geometry": {"type": "Polygon", "coordinates": [[[65.15668928270286, 39.899871620057105], [65.16479258357835, 39.898581960458834], [65.16531090076731, 39.90764331435615], [65.15679741794966, 39.90629808388376], [65.15668928270286, 39.899871620057105]]]}, "properties": {"name": "Kontur-37", "area_ha": 98.7, "soil": "sho'rlangan tuproq", "farm": "Sharipov fermer xo'jaligi №13", "region": "Navoiy"}}, {"type": "Feature", "geometry": {"type": "Polygon", "coordinates": [[[67.48523054473064, 39.78457435137663], [67.48948056279805, 39.78456219017342], [67.48888744828638, 39.78830313532844], [67.4857740112635, 39.78804887655636], [67.48523054473064, 39.78457435137663]]]}, "properties": {"name": "Kontur-38", "area_ha": 16.8, "soil": "sho'rlangan tuproq", "farm": "Vohidov fermer xo'jaligi №15", "region": "Jizzax"}}, {"type": "Feature", "geometry": {"type": "Polygon", "coordinates": [[[68.08456361212767, 40.29892000473776], [68.08902351259997, 40.29866145440391], [68.08932214142855, 40.30305529082458], [68.08400219662104, 40.303744146611876], [68.08456361212767, 40.29892000473776]]]}, "properties": {"name": "Kontur-39", "area_ha": 28.8, "soil": "o'tloq tuproq", "farm": "Abdullayev fermer xo'jaligi №6", "region": "Jizzax"}}, {"type": "Feature", "geometry": {"type": "Polygon", "coordinates": [[[71.97395107916027, 40.71568377902511], [71.98360635668548, 40.71762770321433], [71.98439861276792, 40.72593456268758], [71.9747006842438, 40.72469449316234], [71.97395107916027, 40.71568377902511]]]}, "properties": {"name": "Kontur-40", "area_ha": 94.8, "soil": "o'tloq tuproq", "farm": "Sharipov fermer xo'jaligi №33", "region": "Farg'ona"}}, {"type": "Feature", "geometry": {"type": "Polygon", "coordinates": [[[63.99962571476239, 39.493142973396324], [64.00832490167363, 39.493551042937156], [64.006817088619, 39.50001527424768], [64.00008076903522, 39.50217545242194], [63.99962571476239, 39.493142973396324]]]}, "properties": {"name": "Kontur-41", "area_ha": 86.8, "soil": "o'tloq tuproq", "farm": "Jo'rayev fermer xo'jaligi №26", "region": "Buxoro"}}, {"type": "Feature", "geometry": {"type": "Polygon", "coordinates": [[[64.56428528857086, 40.091076749658896], [64.5707193947721, 40.0902644608092], [64.57094022410261, 40.09829105535994], [64.56266428060565, 40.09964427843406], [64.56428528857086, 40.091076749658896]]]}, "properties": {"name": "Kontur-42", "area_ha": 72.9, "soil": "o'tloq tuproq", "farm": "Sharipov fermer xo'jaligi №11", "region": "Buxoro"}}, {"type": "Feature", "geometry": {"type": "Polygon", "coordinates": [[[65.77789295983351, 40.33936374138485], [65.78812542632826, 40.33950524809011], [65.78775141443037, 40.349291158772445], [65.77767365713554, 40.347514840749064], [65.77789295983351, 40.33936374138485]]]}, "properties": {"name": "Kontur-43", "area_ha": 118.2, "soil": "bo'z tuproq", "farm": "Xolmatov fermer xo'jaligi №67", "region": "Navoiy"}}, {"type": "Feature", "geometry": {"type": "Polygon", "coordinates": [[[59.394714089828604, 42.14321173912863], [59.39686210964244, 42.14321018230247], [59.396818068094206, 42.145417239410214], [59.39420288040671, 42.14545241212499], [59.394714089828604, 42.14321173912863]]]}, "properties": {"name": "Kontur-44", "area_ha": 7.2, "soil": "gilli tuproq", "farm": "Umarov fermer xo'jaligi №25", "region": "Qoraqalpog'iston"}}, {"type": "Feature", "geometry": {"type": "Polygon", "coordinates": [[[59.219911338069394, 42.339381813], [59.22611264144286, 42.33903519421409], [59.22613023855901, 42.34595312985407], [59.21836467270227, 42.34598098181557], [59.219911338069394, 42.339381813]]]}, "properties": {"name": "Kontur-45", "area_ha": 63.3, "soil": "gilli tuproq", "farm": "Aliyev fermer xo'jaligi №56", "region": "Qoraqalpog'iston"}}, {"type": "Feature", "geometry": {"type": "Polygon", "coordinates": [[[68.06125937683589, 40.3697737692773], [68.0648342938339, 40.37003594921816], [68.06484097871108, 40.372767317955606], [68.06146826353175, 40.37251829158214], [68.06125937683589, 40.3697737692773]]]}, "properties": {"name": "Kontur-46", "area_ha": 10.8, "soil": "o'tloq tuproq", "farm": "Islomov fermer xo'jaligi №2", "region": "Jizzax"}}, {"type": "Feature", "geometry": {"type": "Polygon", "coordinates": [[[66.16246125712206, 39.169467190041104], [66.16877355817323, 39.17016890244195], [66.16882974720696, 39.176189152111164], [66.1626461702487, 39.17622465282912], [66.16246125712206, 39.169467190041104]]]}, "properties": {"name": "Kontur-47", "area_ha": 50.6, "soil": "qumloq tuproq", "farm": "Saidov fermer xo'jaligi №52", "region": "Qashqadaryo"}}, {"type": "Feature", "geometry": {"type": "Polygon", "coordinates": [[[72.5479773502489, 41.02387135014982], [72.55135235643364, 41.024562833042516], [72.55116968259641, 41.02718658277722], [72.54740450119682, 41.027762306799765], [72.5479773502489, 41.02387135014982]]]}, "properties": {"name": "Kontur-48", "area_ha": 15.8, "soil": "bo'z tuproq", "farm": "Qodirov fermer xo'jaligi №45", "region": "Andijon"}}, {"type": "Feature", "geometry": {"type": "Polygon", "coordinates": [[[72.08142319596689, 41.254983857245925], [72.08698041843492, 41.25407037061966], [72.08715682893396, 41.26010247807027], [72.08108335407431, 41.26119505638013], [72.08142319596689, 41.254983857245925]]]}, "properties": {"name": "Kontur-49", "area_ha": 48.6, "soil": "qumloq tuproq", "farm": "Bekmurodov fermer xo'jaligi №54", "region": "Namangan"}}, {"type": "Feature", "geometry": {"type": "Polygon", "coordinates": [[[64.22413263187673, 39.46233986210981], [64.23165251209467, 39.462634457555666], [64.23360961623756, 39.471508249019216], [64.22255235992047, 39.47158383650346], [64.22413263187673, 39.46233986210981]]]}, "properties": {"name": "Kontur-50", "area_ha": 90.5, "soil": "gilli tuproq", "farm": "Vohidov fermer xo'jaligi №58", "region": "Buxoro"}}, {"type": "Feature", "geometry": {"type": "Polygon", "coordinates": [[[60.26382234302406, 41.331040025972996], [60.27341407473125, 41.33133439653012], [60.27178561325513, 41.341057633944764], [60.26291942429107, 41.33954712553212], [60.26382234302406, 41.331040025972996]]]}, "properties": {"name": "Kontur-51", "area_ha": 112.6, "soil": "o'tloq tuproq", "farm": "Qodirov fermer xo'jaligi №30", "region": "Xorazm"}}, {"type": "Feature", "geometry": {"type": "Polygon", "coordinates": [[[60.2827502215811, 41.43044784547293], [60.291858136945976, 41.43068077297796], [60.29241644086752, 41.43867781398036], [60.2840859402336, 41.43937002014143], [60.2827502215811, 41.43044784547293]]]}, "properties": {"name": "Kontur-52", "area_ha": 91.7, "soil": "sho'rlangan tuproq", "farm": "Qodirov fermer xo'jaligi №30", "region": "Xorazm"}}, {"type": "Feature", "geometry": {"type": "Polygon", "coordinates": [[[64.62293996164016, 39.91376480349594], [64.63020142010178, 39.914283347579605], [64.62949098876514, 39.92024338546848], [64.62241383222343, 39.92101984105073], [64.62293996164016, 39.91376480349594]]]}, "properties": {"name": "Kontur-53", "area_ha": 62.0, "soil": "bo'z tuproq", "farm": "Olimov fermer xo'jaligi №16", "region": "Buxoro"}}, {"type": "Feature", "geometry": {"type": "Polygon", "coordinates": [[[71.92643507413207, 41.262912967323196], [71.93230845937046, 41.26316753652952], [71.9323497166901, 41.26929113668081], [71.92650210689638, 41.26847503575709], [71.92643507413207, 41.262912967323196]]]}, "properties": {"name": "Kontur-54", "area_ha": 40.0, "soil": "gilli tuproq", "farm": "Xolmatov fermer xo'jaligi №23", "region": "Namangan"}}, {"type": "Feature", "geometry": {"type": "Polygon", "coordinates": [[[71.99848066022723, 40.50335192168521], [72.00390102725757, 40.503550896621974], [72.00406828316541, 40.507764592011696], [71.99857228646184, 40.50784922459311], [71.99848066022723, 40.50335192168521]]]}, "properties": {"name": "Kontur-55", "area_ha": 39.0, "soil": "bo'z tuproq", "farm": "Qodirov fermer xo'jaligi №66", "region": "Andijon"}}, {"type": "Feature", "geometry": {"type": "Polygon", "coordinates": [[[60.32720639402704, 41.32094622147634], [60.33191338371611, 41.32073171093304], [60.33188849567765, 41.32446224078709], [60.326760596162124, 41.32480847750096], [60.32720639402704, 41.32094622147634]]]}, "properties": {"name": "Kontur-56", "area_ha": 25.6, "soil": "bo'z tuproq", "farm": "Vohidov fermer xo'jaligi №60", "region": "Xorazm"}}, {"type": "Feature", "geometry": {"type": "Polygon", "coordinates": [[[68.91745537237719, 41.14650076276827], [68.92672569998656, 41.146264597112484], [68.9268921550667, 41.1558389066653], [68.91838795789147, 41.156676518916434], [68.91745537237719, 41.14650076276827]]]}, "properties": {"name": "Kontur-57", "area_ha": 107.1, "soil": "o'tloq tuproq", "farm": "Qodirov fermer xo'jaligi №20", "region": "Sirdaryo"}}, {"type": "Feature", "geometry": {"type": "Polygon", "coordinates": [[[67.25441505716721, 37.73194877146768], [67.25856577457414, 37.731955497533995], [67.2586577010766, 37.73644954090823], [67.25420070555984, 37.7359371479878], [67.25441505716721, 37.73194877146768]]]}, "properties": {"name": "Kontur-58", "area_ha": 23.8, "soil": "bo'z tuproq", "farm": "Xolmatov fermer xo'jaligi №39", "region": "Surxondaryo"}}, {"type": "Feature", "geometry": {"type": "Polygon", "coordinates": [[[68.99147068307319, 41.19940802541206], [68.99686851213104, 41.19884712811372], [68.99645514197296, 41.20436031172371], [68.99190135827068, 41.20466344392525], [68.99147068307319, 41.19940802541206]]]}, "properties": {"name": "Kontur-59", "area_ha": 26.5, "soil": "gilli tuproq", "farm": "Qodirov fermer xo'jaligi №20", "region": "Sirdaryo"}}, {"type": "Feature", "geometry": {"type": "Polygon", "coordinates": [[[64.03819635477707, 39.647228991696835], [64.04741946122485, 39.64641954584553], [64.04727742518571, 39.65542066432151], [64.0394390185874, 39.65592167916984], [64.03819635477707, 39.647228991696835]]]}, "properties": {"name": "Kontur-60", "area_ha": 91.3, "soil": "o'tloq tuproq", "farm": "Vohidov fermer xo'jaligi №58", "region": "Buxoro"}}, {"type": "Feature", "geometry": {"type": "Polygon", "coordinates": [[[69.49984874276991, 41.60451569552755], [69.5047916029539, 41.60471716942181], [69.50398426071558, 41.60926036676098], [69.50031719327279, 41.608628161186054], [69.49984874276991, 41.60451569552755]]]}, "properties": {"name": "Kontur-61", "area_ha": 22.5, "soil": "bo'z tuproq", "farm": "Rahimov fermer xo'jaligi №73", "region": "Toshkent"}}, {"type": "Feature", "geometry": {"type": "Polygon", "coordinates": [[[69.60829696353036, 41.61582311634239], [69.6132075899724, 41.615546259989415], [69.61360669166297, 41.6207495905081], [69.60938510629843, 41.62069364071962], [69.60829696353036, 41.61582311634239]]]}, "properties": {"name": "Kontur-62", "area_ha": 25.4, "soil": "sho'rlangan tuproq", "farm": "Rahimov fermer xo'jaligi №72", "region": "Toshkent"}}, {"type": "Feature", "geometry": {"type": "Polygon", "coordinates": [[[64.161858394722, 39.59313603086037], [64.16821886616599, 39.592384463358144], [64.16804697776331, 39.59949660106535], [64.16179656215525, 39.59935446971845], [64.161858394722, 39.59313603086037]]]}, "properties": {"name": "Kontur-63", "area_ha": 51.4, "soil": "sho'rlangan tuproq", "farm": "Abdullayev fermer xo'jaligi №4", "region": "Buxoro"}}, {"type": "Feature", "geometry": {"type": "Polygon", "coordinates": [[[65.50395378544385, 38.75121720282992], [65.51254183047581, 38.74932626287899], [65.51220953996923, 38.757853247561094], [65.50473948115801, 38.75830940439044], [65.50395378544385, 38.75121720282992]]]}, "properties": {"name": "Kontur-64", "area_ha": 81.8, "soil": "o'tloq tuproq", "farm": "Yusupov fermer xo'jaligi №40", "region": "Qashqadaryo"}}, {"type": "Feature", "geometry": {"type": "Polygon", "coordinates": [[[68.15239931806555, 40.29476148041229], [68.15573685120681, 40.294458888851565], [68.155714553758, 40.2986969637832], [68.15227142086562, 40.29900847331704], [68.15239931806555, 40.29476148041229]]]}, "properties": {"name": "Kontur-65", "area_ha": 20.9, "soil": "gilli tuproq", "farm": "Islomov fermer xo'jaligi №2", "region": "Jizzax"}}, {"type": "Feature", "geometry": {"type": "Polygon", "coordinates": [[[69.56724377781484, 41.54628337771184], [69.57809810268672, 41.54587663173118], [69.57796617737073, 41.556527077798215], [69.56693170735171, 41.55674383167361], [69.56724377781484, 41.54628337771184]]]}, "properties": {"name": "Kontur-66", "area_ha": 117.3, "soil": "sho'rlangan tuproq", "farm": "Rahimov fermer xo'jaligi №72", "region": "Toshkent"}}, {"type": "Feature", "geometry": {"type": "Polygon", "coordinates": [[[68.06877263481522, 40.37707571859873], [68.07559823565876, 40.37702018405254], [68.07544701958642, 40.38372760564319], [68.0691147296751, 40.38512767176926], [68.06877263481522, 40.37707571859873]]]}, "properties": {"name": "Kontur-67", "area_ha": 61.3, "soil": "gilli tuproq", "farm": "Islomov fermer xo'jaligi №2", "region": "Jizzax"}}, {"type": "Feature", "geometry": {"type": "Polygon", "coordinates": [[[68.9493970645286, 41.018772270237854], [68.95608241393515, 41.01928888643874], [68.95592743468936, 41.02594875491991], [68.94900667334441, 41.0253383877912], [68.9493970645286, 41.018772270237854]]]}, "properties": {"name": "Kontur-68", "area_ha": 57.5, "soil": "qumloq tuproq", "farm": "Qodirov fermer xo'jaligi №20", "region": "Sirdaryo"}}, {"type": "Feature", "geometry": {"type": "Polygon", "coordinates": [[[72.10470116592809, 41.321232007361516], [72.11063624324505, 41.32101863731901], [72.11033121698675, 41.32778009975152], [72.10537758326167, 41.32893241730497], [72.10470116592809, 41.321232007361516]]]}, "properties": {"name": "Kontur-69", "area_ha": 43.7, "soil": "o'tloq tuproq", "farm": "Xolmatov fermer xo'jaligi №23", "region": "Namangan"}}, {"type": "Feature", "geometry": {"type": "Polygon", "coordinates": [[[64.578207987994, 40.12142951991975], [64.58751496885587, 40.1210931461451], [64.58643592147254, 40.12981851409333], [64.5783658212196, 40.13072475694845], [64.578207987994, 40.12142951991975]]]}, "properties": {"name": "Kontur-70", "area_ha": 112.3, "soil": "gilli tuproq", "farm": "Sharipov fermer xo'jaligi №11", "region": "Buxoro"}}, {"type": "Feature", "geometry": {"type": "Polygon", "coordinates": [[[64.72654169692083, 40.00790142805631], [64.73523926601554, 40.00749263486022], [64.73490098394568, 40.01535900604615], [64.72753955325992, 40.015008244124026], [64.72654169692083, 40.00790142805631]]]}, "properties": {"name": "Kontur-71", "area_ha": 68.5, "soil": "qumloq tuproq", "farm": "Sharipov fermer xo'jaligi №11", "region": "Buxoro"}}, {"type": "Feature", "geometry": {"type": "Polygon", "coordinates": [[[69.49101401364963, 41.614916557543786], [69.49457802557356, 41.61528088077275], [69.49461899322054, 41.6180044558956], [69.49105937859669, 41.6180114171729], [69.49101401364963, 41.614916557543786]]]}, "properties": {"name": "Kontur-72", "area_ha": 10.9, "soil": "o'tloq tuproq", "farm": "Olimov fermer xo'jaligi №51", "region": "Toshkent"}}, {"type": "Feature", "geometry": {"type": "Polygon", "coordinates": [[[71.93843427674994, 40.72774045998458], [71.9426381660801, 40.72805085800986], [71.94226254365013, 40.73214920244012], [71.93826645119626, 40.73213845900278], [71.93843427674994, 40.72774045998458]]]}, "properties": {"name": "Kontur-73", "area_ha": 21.5, "soil": "o'tloq tuproq", "farm": "Karimov fermer xo'jaligi №62", "region": "Farg'ona"}}, {"type": "Feature", "geometry": {"type": "Polygon", "coordinates": [[[64.59610489030946, 39.92640653255195], [64.60523180845784, 39.92751509314733], [64.60558289819336, 39.93643872474993], [64.59674916231216, 39.93559542147941], [64.59610489030946, 39.92640653255195]]]}, "properties": {"name": "Kontur-74", "area_ha": 99.7, "soil": "bo'z tuproq", "farm": "Sharipov fermer xo'jaligi №12", "region": "Buxoro"}}, {"type": "Feature", "geometry": {"type": "Polygon", "coordinates": [[[65.69403670479488, 40.433363769672795], [65.7022603742964, 40.434024514946856], [65.70250605416352, 40.44059244456432], [65.69565502980903, 40.4413502522075], [65.69403670479488, 40.433363769672795]]]}, "properties": {"name": "Kontur-75", "area_ha": 63.0, "soil": "o'tloq tuproq", "farm": "Xolmatov fermer xo'jaligi №68", "region": "Navoiy"}}, {"type": "Feature", "geometry": {"type": "Polygon", "coordinates": [[[68.30258872580991, 40.66331504964595], [68.30866832120427, 40.663970472046856], [68.30748856128388, 40.66899445604303], [68.30168190597844, 40.66950173951754], [68.30258872580991, 40.66331504964595]]]}, "properties": {"name": "Kontur-76", "area_ha": 50.8, "soil": "gilli tuproq", "farm": "Rahimov fermer xo'jaligi №29", "region": "Sirdaryo"}}, {"type": "Feature", "geometry": {"type": "Polygon", "coordinates": [[[69.54218569064697, 41.629540280120615], [69.54655124920922, 41.62863692483052], [69.54624358942495, 41.63355510626571], [69.5411117127764, 41.63393486669187], [69.54218569064697, 41.629540280120615]]]}, "properties": {"name": "Kontur-77", "area_ha": 38.2, "soil": "qumloq tuproq", "farm": "Olimov fermer xo'jaligi №51", "region": "Toshkent"}}, {"type": "Feature", "geometry": {"type": "Polygon", "coordinates": [[[64.69656347698711, 40.08509328127224], [64.70411213393635, 40.08537665727262], [64.70444934677474, 40.0938747564536], [64.69631922631676, 40.09257248290605], [64.69656347698711, 40.08509328127224]]]}, "properties": {"name": "Kontur-78", "area_ha": 92.2, "soil": "bo'z tuproq", "farm": "Qodirov fermer xo'jaligi №43", "region": "Buxoro"}}, {"type": "Feature", "geometry": {"type": "Polygon", "coordinates": [[[68.83566230456636, 41.115444460639125], [68.84375707772477, 41.115263990892615], [68.84529292263889, 41.12546138694322], [68.83372726983322, 41.12343713789629], [68.83566230456636, 41.115444460639125]]]}, "properties": {"name": "Kontur-79", "area_ha": 107.9, "soil": "gilli tuproq", "farm": "Olimov fermer xo'jaligi №31", "region": "Sirdaryo"}}, {"type": "Feature", "geometry": {"type": "Polygon", "coordinates": [[[60.26856227499326, 41.244883243013355], [60.27306556765289, 41.244673249564855], [60.273042881991614, 41.24949438567724], [60.26924585724285, 41.249926634410336], [60.26856227499326, 41.244883243013355]]]}, "properties": {"name": "Kontur-80", "area_ha": 29.6, "soil": "bo'z tuproq", "farm": "Bekmurodov fermer xo'jaligi №70", "region": "Xorazm"}}, {"type": "Feature", "geometry": {"type": "Polygon", "coordinates": [[[72.12510103834288, 40.56374469426708], [72.13339798087127, 40.56323440450507], [72.13375812071064, 40.57313147815145], [72.12662719481112, 40.5731113469786], [72.12510103834288, 40.56374469426708]]]}, "properties": {"name": "Kontur-81", "area_ha": 75.2, "soil": "bo'z tuproq", "farm": "Sharipov fermer xo'jaligi №33", "region": "Farg'ona"}}, {"type": "Feature", "geometry": {"type": "Polygon", "coordinates": [[[69.41535896660527, 41.69048142409018], [69.42255043469126, 41.69110574513508], [69.42194454664556, 41.6974669690927], [69.4143139970196, 41.698127585155014], [69.41535896660527, 41.69048142409018]]]}, "properties": {"name": "Kontur-82", "area_ha": 65.5, "soil": "o'tloq tuproq", "farm": "Rahimov fermer xo'jaligi №73", "region": "Toshkent"}}, {"type": "Feature", "geometry": {"type": "Polygon", "coordinates": [[[71.94517337205824, 40.65704228861573], [71.95189835799859, 40.65581516659549], [71.95209378333595, 40.66244956635693], [71.94537844680038, 40.66273744393651], [71.94517337205824, 40.65704228861573]]]}, "properties": {"name": "Kontur-83", "area_ha": 50.7, "soil": "qumloq tuproq", "farm": "Sharipov fermer xo'jaligi №32", "region": "Farg'ona"}}, {"type": "Feature", "geometry": {"type": "Polygon", "coordinates": [[[64.08216751838135, 39.68132192366525], [64.09041718336991, 39.68045566321295], [64.0904681821915, 39.6892998587745], [64.08203003408093, 39.689720535491226], [64.08216751838135, 39.68132192366525]]]}, "properties": {"name": "Kontur-84", "area_ha": 111.6, "soil": "qumloq tuproq", "farm": "Jo'rayev fermer xo'jaligi №26", "region": "Buxoro"}}, {"type": "Feature", "geometry": {"type": "Polygon", "coordinates": [[[64.16424065980063, 39.499067377842856], [64.16760186558949, 39.49915664543721], [64.16739017570269, 39.50295466740386], [64.16420148995206, 39.5029362230673], [64.16424065980063, 39.499067377842856]]]}, "properties": {"name": "Kontur-85", "area_ha": 15.9, "soil": "gilli tuproq", "farm": "Jo'rayev fermer xo'jaligi №26", "region": "Buxoro"}}, {"type": "Feature", "geometry": {"type": "Polygon", "coordinates": [[[68.89055642437819, 41.189740148412234], [68.89354672631848, 41.190097608467944], [68.89376241542648, 41.192671071463415], [68.89096324920362, 41.19223394172888], [68.89055642437819, 41.189740148412234]]]}, "properties": {"name": "Kontur-86", "area_ha": 11.0, "soil": "bo'z tuproq", "farm": "Olimov fermer xo'jaligi №31", "region": "Sirdaryo"}}, {"type": "Feature", "geometry": {"type": "Polygon", "coordinates": [[[69.40506263901347, 41.56345912121054], [69.41392621541117, 41.56390989132415], [69.41295077168479, 41.570330256263176], [69.40555829814997, 41.56943122814389], [69.40506263901347, 41.56345912121054]]]}, "properties": {"name": "Kontur-87", "area_ha": 62.1, "soil": "sho'rlangan tuproq", "farm": "Rahimov fermer xo'jaligi №73", "region": "Toshkent"}}, {"type": "Feature", "geometry": {"type": "Polygon", "coordinates": [[[72.1442937505442, 40.74665244589301], [72.15231161858733, 40.74603554335925], [72.15262076629467, 40.75495050393328], [72.14479340342996, 40.75316737649846], [72.1442937505442, 40.74665244589301]]]}, "properties": {"name": "Kontur-88", "area_ha": 66.7, "soil": "qumloq tuproq", "farm": "Karimov fermer xo'jaligi №62", "region": "Farg'ona"}}, {"type": "Feature", "geometry": {"type": "Polygon", "coordinates": [[[65.67137317764707, 40.355735544271255], [65.6794517535077, 40.35550166961263], [65.68017598495176, 40.364121640965514], [65.67194357209274, 40.36326920570719], [65.67137317764707, 40.355735544271255]]]}, "properties": {"name": "Kontur-89", "area_ha": 74.8, "soil": "bo'z tuproq", "farm": "Xolmatov fermer xo'jaligi №67", "region": "Navoiy"}}, {"type": "Feature", "geometry": {"type": "Polygon", "coordinates": [[[71.95311439566136, 40.68054891838523], [71.9601156676527, 40.68185304198356], [71.96014873718782, 40.68740741066948], [71.95306205163156, 40.688608752566466], [71.95311439566136, 40.68054891838523]]]}, "properties": {"name": "Kontur-90", "area_ha": 58.3, "soil": "qumloq tuproq", "farm": "Sharipov fermer xo'jaligi №33", "region": "Farg'ona"}}, {"type": "Feature", "geometry": {"type": "Polygon", "coordinates": [[[72.6794282415739, 40.833515666722754], [72.68546423845959, 40.8329739982252], [72.68647498938098, 40.838591541539614], [72.67888285519024, 40.83888076678939], [72.6794282415739, 40.833515666722754]]]}, "properties": {"name": "Kontur-91", "area_ha": 44.6, "soil": "bo'z tuproq", "farm": "Xolmatov fermer xo'jaligi №53", "region": "Andijon"}}, {"type": "Feature", "geometry": {"type": "Polygon", "coordinates": [[[72.15450719605445, 40.64595753381758], [72.15734210559307, 40.64608441881031], [72.15710410993316, 40.64893609278195], [72.15417758805654, 40.64889340433433], [72.15450719605445, 40.64595753381758]]]}, "properties": {"name": "Kontur-92", "area_ha": 9.1, "soil": "sho'rlangan tuproq", "farm": "Sharipov fermer xo'jaligi №32", "region": "Farg'ona"}}, {"type": "Feature", "geometry": {"type": "Polygon", "coordinates": [[[68.9215669279022, 40.9969897443221], [68.93063388556084, 40.997783619202536], [68.92971442572149, 41.006791664227876], [68.92158772217778, 41.00646262097009], [68.9215669279022, 40.9969897443221]]]}, "properties": {"name": "Kontur-93", "area_ha": 101.0, "soil": "bo'z tuproq", "farm": "Karimov fermer xo'jaligi №75", "region": "Sirdaryo"}}, {"type": "Feature", "geometry": {"type": "Polygon", "coordinates": [[[69.61020821781719, 41.473622456889], [69.62129228485352, 41.47185342337857], [69.62098042669602, 41.48297396694348], [69.61171305650929, 41.482837878595646], [69.61020821781719, 41.473622456889]]]}, "properties": {"name": "Kontur-94", "area_ha": 115.9, "soil": "bo'z tuproq", "farm": "Rahimov fermer xo'jaligi №72", "region": "Toshkent"}}, {"type": "Feature", "geometry": {"type": "Polygon", "coordinates": [[[59.385817330427464, 42.33288798379109], [59.3941794611957, 42.33306988679953], [59.39628839826032, 42.34161045940255], [59.38627683471012, 42.34173045486884], [59.385817330427464, 42.33288798379109]]]}, "properties": {"name": "Kontur-95", "area_ha": 108.4, "soil": "qumloq tuproq", "farm": "Aliyev fermer xo'jaligi №56", "region": "Qoraqalpog'iston"}}, {"type": "Feature", "geometry": {"type": "Polygon", "coordinates": [[[68.90937140918227, 41.12102360135797], [68.92066333039872, 41.11956288020951], [68.92064396719577, 41.128210845680115], [68.9115528633942, 41.12898651476377], [68.90937140918227, 41.12102360135797]]]}, "properties": {"name": "Kontur-96", "area_ha": 112.0, "soil": "o'tloq tuproq", "farm": "Qodirov fermer xo'jaligi №38", "region": "Toshkent"}}, {"type": "Feature", "geometry": {"type": "Polygon", "coordinates": [[[65.0163761805189, 39.699988948780714], [65.02057905890396, 39.69994439156983], [65.02044718531924, 39.70478443564129], [65.01578963356079, 39.70447287084989], [65.0163761805189, 39.699988948780714]]]}, "properties": {"name": "Kontur-97", "area_ha": 22.7, "soil": "bo'z tuproq", "farm": "Sharipov fermer xo'jaligi №13", "region": "Navoiy"}}, {"type": "Feature", "geometry": {"type": "Polygon", "coordinates": [[[72.50653501818634, 40.83118121139799], [72.51203430550414, 40.83107370174079], [72.51230950005107, 40.837840368806866], [72.50617738254786, 40.8367932012809], [72.50653501818634, 40.83118121139799]]]}, "properties": {"name": "Kontur-98", "area_ha": 45.0, "soil": "sho'rlangan tuproq", "farm": "Qodirov fermer xo'jaligi №45", "region": "Andijon"}}, {"type": "Feature", "geometry": {"type": "Polygon", "coordinates": [[[68.16217803540617, 40.27965621836779], [68.16855362697835, 40.279302562106906], [68.16910685378839, 40.28675406894], [68.1620934052994, 40.285316279579824], [68.16217803540617, 40.27965621836779]]]}, "properties": {"name": "Kontur-99", "area_ha": 55.0, "soil": "gilli tuproq", "farm": "Xolmatov fermer xo'jaligi №35", "region": "Jizzax"}}, {"type": "Feature", "geometry": {"type": "Polygon", "coordinates": [[[71.30401494473138, 40.76532876800193], [71.31169509430447, 40.764723697696574], [71.31299608896991, 40.77239317614001], [71.30458601519547, 40.77128189243441], [71.30401494473138, 40.76532876800193]]]}, "properties": {"name": "Kontur-100", "area_ha": 60.9, "soil": "gilli tuproq", "farm": "Xolmatov fermer xo'jaligi №14", "region": "Namangan"}}, {"type": "Feature", "geometry": {"type": "Polygon", "coordinates": [[[68.14674671459747, 40.42433592917117], [68.15004521511078, 40.424383652461565], [68.14992546689973, 40.42755039892363], [68.14662930653932, 40.42729847082609], [68.14674671459747, 40.42433592917117]]]}, "properties": {"name": "Kontur-101", "area_ha": 11.9, "soil": "qumloq tuproq", "farm": "Abdullayev fermer xo'jaligi №6", "region": "Jizzax"}}, {"type": "Feature", "geometry": {"type": "Polygon", "coordinates": [[[72.10854967718807, 40.61743749407044], [72.11469993097022, 40.6172475851615], [72.11541628868395, 40.62481198396174], [72.1091431266034, 40.623233716947844], [72.10854967718807, 40.61743749407044]]]}, "properties": {"name": "Kontur-102", "area_ha": 47.7, "soil": "o'tloq tuproq", "farm": "Karimov fermer xo'jaligi №61", "region": "Farg'ona"}}, {"type": "Feature", "geometry": {"type": "Polygon", "coordinates": [[[65.37130477378491, 38.65902483621034], [65.38124294775838, 38.65822373800404], [65.38100778439643, 38.66740885284563], [65.37212392501682, 38.66660993505803], [65.37130477378491, 38.65902483621034]]]}, "properties": {"name": "Kontur-103", "area_ha": 107.9, "soil": "bo'z tuproq", "farm": "Yusupov fermer xo'jaligi №40", "region": "Qashqadaryo"}}, {"type": "Feature", "geometry": {"type": "Polygon", "coordinates": [[[68.8300365908832, 41.07605404847615], [68.83614445609552, 41.07557327957295], [68.83626770585393, 41.08166921042112], [68.8304669804222, 41.08164808401776], [68.8300365908832, 41.07605404847615]]]}, "properties": {"name": "Kontur-104", "area_ha": 46.1, "soil": "o'tloq tuproq", "farm": "Karimov fermer xo'jaligi №75", "region": "Sirdaryo"}}, {"type": "Feature", "geometry": {"type": "Polygon", "coordinates": [[[68.99134386261203, 41.06763121658925], [68.99925454200428, 41.067744165096826], [68.9979834510161, 41.07632210808744], [68.9917947509775, 41.076439784714715], [68.99134386261203, 41.06763121658925]]]}, "properties": {"name": "Kontur-105", "area_ha": 98.7, "soil": "o'tloq tuproq", "farm": "Ergashev fermer xo'jaligi №22", "region": "Sirdaryo"}}, {"type": "Feature", "geometry": {"type": "Polygon", "coordinates": [[[67.1622407842864, 39.901800900539385], [67.16656852891425, 39.90213431047858], [67.16668948794825, 39.90518680037739], [67.16236616476, 39.904940118740384], [67.1622407842864, 39.901800900539385]]]}, "properties": {"name": "Kontur-106", "area_ha": 20.1, "soil": "gilli tuproq", "farm": "Toshmatov fermer xo'jaligi №19", "region": "Samarqand"}}, {"type": "Feature", "geometry": {"type": "Polygon", "coordinates": [[[68.45865464870867, 40.64206142509726], [68.46564676814157, 40.64261216677182], [68.4675276634151, 40.65171960317609], [68.45850289350601, 40.65068882352992], [68.45865464870867, 40.64206142509726]]]}, "properties": {"name": "Kontur-107", "area_ha": 107.3, "soil": "o'tloq tuproq", "farm": "Rahimov fermer xo'jaligi №29", "region": "Sirdaryo"}}, {"type": "Feature", "geometry": {"type": "Polygon", "coordinates": [[[67.89748739207191, 38.09697619955042], [67.90144137259476, 38.096785189615375], [67.90158195334446, 38.100283351147375], [67.89813518765726, 38.10024616246621], [67.89748739207191, 38.09697619955042]]]}, "properties": {"name": "Kontur-108", "area_ha": 17.5, "soil": "bo'z tuproq", "farm": "Abdullayev fermer xo'jaligi №36", "region": "Surxondaryo"}}, {"type": "Feature", "geometry": {"type": "Polygon", "coordinates": [[[65.65455797011677, 40.38751136674223], [65.6610126378258, 40.38767314192419], [65.66065462643799, 40.39356512021733], [65.65493593131188, 40.39419617864463], [65.65455797011677, 40.38751136674223]]]}, "properties": {"name": "Kontur-109", "area_ha": 44.6, "soil": "o'tloq tuproq", "farm": "Xolmatov fermer xo'jaligi №67", "region": "Navoiy"}}, {"type": "Feature", "geometry": {"type": "Polygon", "coordinates": [[[71.42121320519657, 40.71167452903447], [71.43005812413206, 40.71201736575311], [71.42990863905844, 40.72147864404961], [71.4222485678339, 40.72030744603377], [71.42121320519657, 40.71167452903447]]]}, "properties": {"name": "Kontur-110", "area_ha": 98.4, "soil": "qumloq tuproq", "farm": "Xolmatov fermer xo'jaligi №14", "region": "Namangan"}}, {"type": "Feature", "geometry": {"type": "Polygon", "coordinates": [[[64.74799661912571, 40.07382136532472], [64.75383674721374, 40.074724470472674], [64.75295238839156, 40.079710801033904], [64.74903849141023, 40.07951420895754], [64.74799661912571, 40.07382136532472]]]}, "properties": {"name": "Kontur-111", "area_ha": 34.1, "soil": "sho'rlangan tuproq", "farm": "Sharipov fermer xo'jaligi №11", "region": "Buxoro"}}, {"type": "Feature", "geometry": {"type": "Polygon", "coordinates": [[[60.310011722817734, 41.24111476756821], [60.319834614320605, 41.24017992891565], [60.31956622400223, 41.24845592034145], [60.31146282898827, 41.248910801344444], [60.310011722817734, 41.24111476756821]]]}, "properties": {"name": "Kontur-112", "area_ha": 98.1, "soil": "o'tloq tuproq", "farm": "Qodirov fermer xo'jaligi №30", "region": "Xorazm"}}, {"type": "Feature", "geometry": {"type": "Polygon", "coordinates": [[[59.88645263813633, 42.717117052623024], [59.89503198116125, 42.71873038346452], [59.89599946971533, 42.726633864362626], [59.88506672825283, 42.72867218061265], [59.88645263813633, 42.717117052623024]]]}, "properties": {"name": "Kontur-113", "area_ha": 118.0, "soil": "o'tloq tuproq", "farm": "Islomov fermer xo'jaligi №59", "region": "Qoraqalpog'iston"}}, {"type": "Feature", "geometry": {"type": "Polygon", "coordinates": [[[69.62316145372799, 41.64340002063516], [69.62859309666783, 41.64353828030157], [69.62832762763493, 41.64929756637732], [69.6242584423243, 41.64833296270087], [69.62316145372799, 41.64340002063516]]]}, "properties": {"name": "Kontur-114", "area_ha": 38.3, "soil": "sho'rlangan tuproq", "farm": "Rahimov fermer xo'jaligi №73", "region": "Toshkent"}}, {"type": "Feature", "geometry": {"type": "Polygon", "coordinates": [[[59.25758678667563, 42.110239606909175], [59.263733543697505, 42.11021868047155], [59.26251192680993, 42.11686041504435], [59.25740051756303, 42.116613556114515], [59.25758678667563, 42.110239606909175]]]}, "properties": {"name": "Kontur-115", "area_ha": 50.9, "soil": "qumloq tuproq", "farm": "Yusupov fermer xo'jaligi №63", "region": "Qoraqalpog'iston"}}, {"type": "Feature", "geometry": {"type": "Polygon", "coordinates": [[[66.17120109192372, 39.156787549579015], [66.17603079100665, 39.1567401745949], [66.17678980282305, 39.16194250498813], [66.1704503478703, 39.162245009668666], [66.17120109192372, 39.156787549579015]]]}, "properties": {"name": "Kontur-116", "area_ha": 40.2, "soil": "qumloq tuproq", "farm": "Olimov fermer xo'jaligi №50", "region": "Qashqadaryo"}}, {"type": "Feature", "geometry": {"type": "Polygon", "coordinates": [[[64.58997307773274, 39.95546779281634], [64.59928740329143, 39.95542944696535], [64.5980860471591, 39.963812928886384], [64.59075913870684, 39.96448519886887], [64.58997307773274, 39.95546779281634]]]}, "properties": {"name": "Kontur-117", "area_ha": 91.2, "soil": "gilli tuproq", "farm": "Sharipov fermer xo'jaligi №11", "region": "Buxoro"}}, {"type": "Feature", "geometry": {"type": "Polygon", "coordinates": [[[67.13212122479986, 39.92034188436482], [67.14148191759602, 39.92134743011383], [67.14072628814635, 39.928015821650874], [67.13430929567197, 39.92881160428425], [67.13212122479986, 39.92034188436482]]]}, "properties": {"name": "Kontur-118", "area_ha": 83.0, "soil": "o'tloq tuproq", "farm": "Toshmatov fermer xo'jaligi №19", "region": "Samarqand"}}, {"type": "Feature", "geometry": {"type": "Polygon", "coordinates": [[[59.429717606369344, 42.20161326943699], [59.433053727653125, 42.20167348933767], [59.433603240384585, 42.20515364572381], [59.429471737584606, 42.20547989419778], [59.429717606369344, 42.20161326943699]]]}, "properties": {"name": "Kontur-119", "area_ha": 15.8, "soil": "bo'z tuproq", "farm": "Yusupov fermer xo'jaligi №63", "region": "Qoraqalpog'iston"}}, {"type": "Feature", "geometry": {"type": "Polygon", "coordinates": [[[71.90756598712132, 41.32803582522208], [71.91701763759082, 41.3279741618147], [71.9166609640923, 41.33612050517558], [71.90833811806088, 41.33636118755125], [71.90756598712132, 41.32803582522208]]]}, "properties": {"name": "Kontur-120", "area_ha": 80.7, "soil": "sho'rlangan tuproq", "farm": "Xolmatov fermer xo'jaligi №23", "region": "Namangan"}}, {"type": "Feature", "geometry": {"type": "Polygon", "coordinates": [[[67.26619222795931, 39.80546773551887], [67.27588459356329, 39.80614580808382], [67.27644837086731, 39.81715640682973], [67.26593616432004, 39.8155938403567], [67.26619222795931, 39.80546773551887]]]}, "properties": {"name": "Kontur-121", "area_ha": 113.7, "soil": "sho'rlangan tuproq", "farm": "Toshmatov fermer xo'jaligi №18", "region": "Samarqand"}}, {"type": "Feature", "geometry": {"type": "Polygon", "coordinates": [[[60.36905593278169, 41.39052421314185], [60.37821565952235, 41.38933381044048], [60.37928671067567, 41.39868661492244], [60.36846345803229, 41.39715665772149], [60.36905593278169, 41.39052421314185]]]}, "properties": {"name": "Kontur-122", "area_ha": 115.2, "soil": "o'tloq tuproq", "farm": "Umarov fermer xo'jaligi №21", "region": "Xorazm"}}, {"type": "Feature", "geometry": {"type": "Polygon", "coordinates": [[[60.022603813805745, 42.65368552810774], [60.030893197588085, 42.65322323398635], [60.0311449184126, 42.660799576058935], [60.02255871141134, 42.66269487442939], [60.022603813805745, 42.65368552810774]]]}, "properties": {"name": "Kontur-123", "area_ha": 71.5, "soil": "bo'z tuproq", "farm": "Islomov fermer xo'jaligi №59", "region": "Qoraqalpog'iston"}}, {"type": "Feature", "geometry": {"type": "Polygon", "coordinates": [[[72.10326793078586, 41.16346753489826], [72.10653403189129, 41.163450581932416], [72.10650340151628, 41.1664074135304], [72.10312165745259, 41.16699187655945], [72.10326793078586, 41.16346753489826]]]}, "properties": {"name": "Kontur-124", "area_ha": 13.5, "soil": "qumloq tuproq", "farm": "Umarov fermer xo'jaligi №71", "region": "Namangan"}}, {"type": "Feature", "geometry": {"type": "Polygon", "coordinates": [[[72.64241643201117, 40.850493669414284], [72.64978109825645, 40.84904998722395], [72.64986631807521, 40.856229319793634], [72.64231893563509, 40.856792709942944], [72.64241643201117, 40.850493669414284]]]}, "properties": {"name": "Kontur-125", "area_ha": 58.8, "soil": "qumloq tuproq", "farm": "Qodirov fermer xo'jaligi №46", "region": "Andijon"}}, {"type": "Feature", "geometry": {"type": "Polygon", "coordinates": [[[60.38337427407284, 41.27245788176819], [60.38984796430277, 41.27297033825095], [60.39010999950347, 41.27939395365893], [60.383213665836585, 41.278451263437184], [60.38337427407284, 41.27245788176819]]]}, "properties": {"name": "Kontur-126", "area_ha": 40.4, "soil": "qumloq tuproq", "farm": "Umarov fermer xo'jaligi №21", "region": "Xorazm"}}, {"type": "Feature", "geometry": {"type": "Polygon", "coordinates": [[[72.06538545936743, 41.291008023965624], [72.07357082491497, 41.291621164113515], [72.07375665750259, 41.301131922251926], [72.0657587239225, 41.29943029681217], [72.06538545936743, 41.291008023965624]]]}, "properties": {"name": "Kontur-127", "area_ha": 84.8, "soil": "qumloq tuproq", "farm": "Umarov fermer xo'jaligi №71", "region": "Namangan"}}, {"type": "Feature", "geometry": {"type": "Polygon", "coordinates": [[[68.13696062407706, 40.345034434140786], [68.14400835518444, 40.34568505403993], [68.1450118825505, 40.35190512381193], [68.13639427069556, 40.35134434163128], [68.13696062407706, 40.345034434140786]]]}, "properties": {"name": "Kontur-128", "area_ha": 59.3, "soil": "qumloq tuproq", "farm": "Abdullayev fermer xo'jaligi №6", "region": "Jizzax"}}, {"type": "Feature", "geometry": {"type": "Polygon", "coordinates": [[[69.63555122300382, 41.56463406893834], [69.64158640067264, 41.56409100396012], [69.64261168692735, 41.57101076924171], [69.63440838131514, 41.57099753857602], [69.63555122300382, 41.56463406893834]]]}, "properties": {"name": "Kontur-129", "area_ha": 61.8, "soil": "sho'rlangan tuproq", "farm": "Rahimov fermer xo'jaligi №73", "region": "Toshkent"}}, {"type": "Feature", "geometry": {"type": "Polygon", "coordinates": [[[67.93136877552777, 38.077888186205485], [67.93877552787613, 38.07740524896358], [67.9390004069175, 38.08410551000745], [67.93166164330891, 38.08519388702071], [67.93136877552777, 38.077888186205485]]]}, "properties": {"name": "Kontur-130", "area_ha": 70.5, "soil": "gilli tuproq", "farm": "Abdullayev fermer xo'jaligi №36", "region": "Surxondaryo"}}, {"type": "Feature", "geometry": {"type": "Polygon", "coordinates": [[[71.44261526592422, 40.85298985696076], [71.45118067074907, 40.8526952663926], [71.45150061917562, 40.8622307865529], [71.4427513432822, 40.86145809135858], [71.44261526592422, 40.85298985696076]]]}, "properties": {"name": "Kontur-131", "area_ha": 92.0, "soil": "gilli tuproq", "farm": "Xolmatov fermer xo'jaligi №14", "region": "Namangan"}}, {"type": "Feature", "geometry": {"type": "Polygon", "coordinates": [[[67.1357902835999, 40.01821825371749], [67.14616140718475, 40.018827181152695], [67.14496653554157, 40.02677267091367], [67.13690966032044, 40.02696798018892], [67.1357902835999, 40.01821825371749]]]}, "properties": {"name": "Kontur-132", "area_ha": 103.9, "soil": "o'tloq tuproq", "farm": "Toshmatov fermer xo'jaligi №18", "region": "Samarqand"}}, {"type": "Feature", "geometry": {"type": "Polygon", "coordinates": [[[65.48144890265932, 38.72540436642441], [65.48782458130401, 38.72512386405605], [65.48692206107309, 38.73134792124106], [65.48173700008367, 38.730688875721036], [65.48144890265932, 38.72540436642441]]]}, "properties": {"name": "Kontur-133", "area_ha": 41.9, "soil": "bo'z tuproq", "farm": "Karimov fermer xo'jaligi №42", "region": "Qashqadaryo"}}, {"type": "Feature", "geometry": {"type": "Polygon", "coordinates": [[[65.52834984852157, 38.64872912063506], [65.53497268753551, 38.6485112877003], [65.5351460057011, 38.65548755754717], [65.5287852539835, 38.65479670139883], [65.52834984852157, 38.64872912063506]]]}, "properties": {"name": "Kontur-134", "area_ha": 56.3, "soil": "gilli tuproq", "farm": "Yusupov fermer xo'jaligi №40", "region": "Qashqadaryo"}}, {"type": "Feature", "geometry": {"type": "Polygon", "coordinates": [[[64.60213765081757, 40.093034116045914], [64.60474231918495, 40.09342392440807], [64.60453479433073, 40.0957284302214], [64.60197781470453, 40.095824794199764], [64.60213765081757, 40.093034116045914]]]}, "properties": {"name": "Kontur-135", "area_ha": 7.5, "soil": "sho'rlangan tuproq", "farm": "Qodirov fermer xo'jaligi №44", "region": "Buxoro"}}, {"type": "Feature", "geometry": {"type": "Polygon", "coordinates": [[[68.03700329422819, 40.26021107579475], [68.04418590248545, 40.25985764397093], [68.04518611293821, 40.26931771206606], [68.03814131439222, 40.26740291576875], [68.03700329422819, 40.26021107579475]]]}, "properties": {"name": "Kontur-136", "area_ha": 68.2, "soil": "gilli tuproq", "farm": "Islomov fermer xo'jaligi №48", "region": "Jizzax"}}, {"type": "Feature", "geometry": {"type": "Polygon", "coordinates": [[[66.16040010734955, 39.09378120000693], [66.16349310523653, 39.09376666375808], [66.16338529985201, 39.096729442025875], [66.16105702312791, 39.09644217989139], [66.16040010734955, 39.09378120000693]]]}, "properties": {"name": "Kontur-137", "area_ha": 10.3, "soil": "o'tloq tuproq", "farm": "Saidov fermer xo'jaligi №52", "region": "Qashqadaryo"}}, {"type": "Feature", "geometry": {"type": "Polygon", "coordinates": [[[67.99782122314215, 40.28390172212416], [68.0062252696301, 40.28301164415828], [68.0061643678022, 40.292024692174216], [67.99907530862315, 40.29132524844612], [67.99782122314215, 40.28390172212416]]]}, "properties": {"name": "Kontur-138", "area_ha": 74.4, "soil": "gilli tuproq", "farm": "Islomov fermer xo'jaligi №2", "region": "Jizzax"}}, {"type": "Feature", "geometry": {"type": "Polygon", "coordinates": [[[67.08986400931656, 40.02246110645535], [67.09914188646736, 40.0225140849485], [67.10009106053002, 40.02957173558709], [67.09104675578688, 40.029478782040016], [67.08986400931656, 40.02246110645535]]]}, "properties": {"name": "Kontur-139", "area_ha": 111.4, "soil": "gilli tuproq", "farm": "Toshmatov fermer xo'jaligi №18", "region": "Samarqand"}}, {"type": "Feature", "geometry": {"type": "Polygon", "coordinates": [[[60.25422540446428, 41.35804209291314], [60.26037073229047, 41.35809225841363], [60.261287896289396, 41.363503610802645], [60.25447632789743, 41.363589691126144], [60.25422540446428, 41.35804209291314]]]}, "properties": {"name": "Kontur-140", "area_ha": 53.0, "soil": "qumloq tuproq", "farm": "Vohidov fermer xo'jaligi №60", "region": "Xorazm"}}]}